start=new Date('2022-06-30T00:00:00.000Z').valueOf();
sats=[{"EPHEMERIS_TYPE":"0","ELEMENT_SET_NO":"999","EPOCH":"2022-06-29T20:10:21.606240","TIME_SYSTEM":"UTC","RA_OF_ASC_NODE":"6.8531","LAUNCH_DATE":"2021-02-16","OBJECT_TYPE":"PAYLOAD","COUNTRY_CODE":"US","MEAN_ELEMENT_THEORY":"SGP4","APOAPSIS":"548.355","RCS_SIZE":"LARGE","INCLINATION":"53.0550","GP_ID":"207118047","SEMIMAJOR_AXIS":"6925.339","ARG_OF_PERICENTER":"79.9297","REV_AT_EPOCH":"7666","OBJECT_NAME":"STARLINK-2058","MEAN_MOTION_DOT":"-0.00000259","REF_FRAME":"TEME","CLASSIFICATION_TYPE":"U","BSTAR":"0.00000150110000","ECCENTRICITY":"0.00016620","MEAN_MOTION_DDOT":"0.0000000000000","PERIOD":"95.592","NORAD_CAT_ID":"47667","FILE":"3505610","CENTER_NAME":"EARTH","SITE":"AFETR","MEAN_MOTION":"15.06403108","TLE_LINE2":"2 47667  53.0550   6.8531 0001662  79.9297 280.1880 15.06403108 76661","TLE_LINE1":"1 47667U 21012AZ  22180.84052785 -.00000259  00000-0  15011-5 0  9998","OBJECT_ID":"2021-012AZ","MEAN_ANOMALY":"280.1880","DECAY_DATE":null,"PERIAPSIS":"546.053"},{"INCLINATION":"53.0561","RCS_SIZE":"LARGE","APOAPSIS":"548.216","MEAN_ELEMENT_THEORY":"SGP4","COUNTRY_CODE":"US","TIME_SYSTEM":"UTC","RA_OF_ASC_NODE":"346.6448","LAUNCH_DATE":"2021-02-16","OBJECT_TYPE":"PAYLOAD","EPOCH":"2022-06-29T21:11:25.039680","EPHEMERIS_TYPE":"0","ELEMENT_SET_NO":"999","REV_AT_EPOCH":"7697","ARG_OF_PERICENTER":"78.9373","SEMIMAJOR_AXIS":"6925.385","GP_ID":"207118297","FILE":"3505610","NORAD_CAT_ID":"47668","CENTER_NAME":"EARTH","MEAN_MOTION_DDOT":"0.0000000000000","PERIOD":"95.593","ECCENTRICITY":"0.00013950","REF_FRAME":"TEME","CLASSIFICATION_TYPE":"U","BSTAR":"0.00007545500000","OBJECT_NAME":"STARLINK-2059","MEAN_MOTION_DOT":"0.00000842","DECAY_DATE":null,"PERIAPSIS":"546.284","OBJECT_ID":"2021-012BA","MEAN_ANOMALY":"281.1773","TLE_LINE1":"1 47668U 21012BA  22180.88292870  .00000842  00000-0  75455-4 0  9998","TLE_LINE2":"2 47668  53.0561 346.6448 0001395  78.9373 281.1773 15.06388227 76973","MEAN_MOTION":"15.06388227","SITE":"AFETR"},{"APOAPSIS":"539.175","INCLINATION":"53.0545","RCS_SIZE":"LARGE","MEAN_ELEMENT_THEORY":"SGP4","OBJECT_TYPE":"PAYLOAD","LAUNCH_DATE":"2021-02-16","RA_OF_ASC_NODE":"272.3700","TIME_SYSTEM":"UTC","COUNTRY_CODE":"US","ELEMENT_SET_NO":"999","EPHEMERIS_TYPE":"0","EPOCH":"2022-06-29T12:54:15.067296","REV_AT_EPOCH":"7795","ARG_OF_PERICENTER":"222.8730","GP_ID":"207091624","SEMIMAJOR_AXIS":"6916.924","FILE":"3505485","CENTER_NAME":"EARTH","NORAD_CAT_ID":"47669","ECCENTRICITY":"0.00005580","PERIOD":"95.418","MEAN_MOTION_DDOT":"0.0000000000000","BSTAR":"0.00047760000000","CLASSIFICATION_TYPE":"U","REF_FRAME":"TEME","MEAN_MOTION_DOT":"0.00007387","OBJECT_NAME":"STARLINK-2060","MEAN_ANOMALY":"137.2217","OBJECT_ID":"2021-012BB","PERIAPSIS":"538.403","DECAY_DATE":null,"TLE_LINE2":"2 47669  53.0545 272.3700 0000558 222.8730 137.2217 15.09153090 77953","TLE_LINE1":"1 47669U 21012BB  22180.53767439  .00007387  00000-0  47760-3 0  9997","SITE":"AFETR","MEAN_MOTION":"15.09153090"},{"OBJECT_NAME":"STARLINK-2062","MEAN_MOTION_DOT":"0.00000482","BSTAR":"0.00005123100000","CLASSIFICATION_TYPE":"U","REF_FRAME":"TEME","PERIOD":"95.592","MEAN_MOTION_DDOT":"0.0000000000000","ECCENTRICITY":"0.00015880","FILE":"3505610","NORAD_CAT_ID":"47670","CENTER_NAME":"EARTH","MEAN_MOTION":"15.06398193","SITE":"AFETR","TLE_LINE1":"1 47670U 21012BC  22180.89765831  .00000482  00000-0  51231-4 0  9990","TLE_LINE2":"2 47670  53.0567 346.5756 0001588  59.2525 300.8620 15.06398193 76960","PERIAPSIS":"546.119","DECAY_DATE":null,"OBJECT_ID":"2021-012BC","MEAN_ANOMALY":"300.8620","EPOCH":"2022-06-29T21:32:37.677984","ELEMENT_SET_NO":"999","EPHEMERIS_TYPE":"0","COUNTRY_CODE":"US","OBJECT_TYPE":"PAYLOAD","LAUNCH_DATE":"2021-02-16","TIME_SYSTEM":"UTC","RA_OF_ASC_NODE":"346.5756","MEAN_ELEMENT_THEORY":"SGP4","INCLINATION":"53.0567","RCS_SIZE":"LARGE","APOAPSIS":"548.319","SEMIMAJOR_AXIS":"6925.354","GP_ID":"207119297","ARG_OF_PERICENTER":"59.2525","REV_AT_EPOCH":"7696"},{"MEAN_ELEMENT_THEORY":"SGP4","RCS_SIZE":"LARGE","INCLINATION":"53.0551","APOAPSIS":"548.194","EPOCH":"2022-06-29T17:55:00.622272","EPHEMERIS_TYPE":"0","ELEMENT_SET_NO":"999","COUNTRY_CODE":"US","TIME_SYSTEM":"UTC","RA_OF_ASC_NODE":"347.2534","LAUNCH_DATE":"2021-02-16","OBJECT_TYPE":"PAYLOAD","REV_AT_EPOCH":"7695","GP_ID":"207118548","SEMIMAJOR_AXIS":"6925.332","ARG_OF_PERICENTER":"81.9436","MEAN_MOTION_DDOT":"0.0000000000000","PERIOD":"95.592","ECCENTRICITY":"0.00014390","FILE":"3505610","NORAD_CAT_ID":"47671","CENTER_NAME":"EARTH","MEAN_MOTION_DOT":"0.00000701","OBJECT_NAME":"STARLINK-2064","REF_FRAME":"TEME","BSTAR":"0.00006595400000","CLASSIFICATION_TYPE":"U","TLE_LINE1":"1 47671U 21012BD  22180.74653498  .00000701  00000-0  65954-4 0  9991","TLE_LINE2":"2 47671  53.0551 347.2534 0001439  81.9436 278.1716 15.06405279 76950","DECAY_DATE":null,"PERIAPSIS":"546.201","OBJECT_ID":"2021-012BD","MEAN_ANOMALY":"278.1716","MEAN_MOTION":"15.06405279","SITE":"AFETR"},{"PERIAPSIS":"546.315","DECAY_DATE":null,"MEAN_ANOMALY":"279.4638","OBJECT_ID":"2021-012BE","TLE_LINE1":"1 47672U 21012BE  22180.72535599  .00000353  00000-0  42600-4 0  9997","TLE_LINE2":"2 47672  53.0576 337.3604 0001339  80.6503 279.4638 15.06390684 77069","SITE":"AFETR","MEAN_MOTION":"15.06390684","FILE":"3505610","CENTER_NAME":"EARTH","NORAD_CAT_ID":"47672","PERIOD":"95.593","MEAN_MOTION_DDOT":"0.0000000000000","ECCENTRICITY":"0.00013390","BSTAR":"0.00004260000000","CLASSIFICATION_TYPE":"U","REF_FRAME":"TEME","OBJECT_NAME":"STARLINK-2065","MEAN_MOTION_DOT":"0.00000353","REV_AT_EPOCH":"7706","ARG_OF_PERICENTER":"80.6503","GP_ID":"207118798","SEMIMAJOR_AXIS":"6925.377","INCLINATION":"53.0576","RCS_SIZE":"LARGE","APOAPSIS":"548.169","MEAN_ELEMENT_THEORY":"SGP4","COUNTRY_CODE":"US","LAUNCH_DATE":"2021-02-16","OBJECT_TYPE":"PAYLOAD","TIME_SYSTEM":"UTC","RA_OF_ASC_NODE":"337.3604","EPOCH":"2022-06-29T17:24:30.757536","ELEMENT_SET_NO":"999","EPHEMERIS_TYPE":"0"},{"BSTAR":"0.00013447000000","CLASSIFICATION_TYPE":"U","REF_FRAME":"TEME","OBJECT_NAME":"STARLINK-2066","MEAN_MOTION_DOT":"0.00001721","FILE":"3505610","NORAD_CAT_ID":"47673","CENTER_NAME":"EARTH","ECCENTRICITY":"0.00015290","PERIOD":"95.593","MEAN_MOTION_DDOT":"0.0000000000000","MEAN_MOTION":"15.06388153","SITE":"AFETR","MEAN_ANOMALY":"295.6033","OBJECT_ID":"2021-012BF","PERIAPSIS":"546.191","DECAY_DATE":null,"TLE_LINE2":"2 47673  53.0556 347.1744 0001529  64.5114 295.6033 15.06388153 76945","TLE_LINE1":"1 47673U 21012BF  22180.76865982  .00001721  00000-0  13447-3 0  9990","OBJECT_TYPE":"PAYLOAD","LAUNCH_DATE":"2021-02-16","TIME_SYSTEM":"UTC","RA_OF_ASC_NODE":"347.1744","COUNTRY_CODE":"US","ELEMENT_SET_NO":"999","EPHEMERIS_TYPE":"0","EPOCH":"2022-06-29T18:26:52.208448","APOAPSIS":"548.309","RCS_SIZE":"LARGE","INCLINATION":"53.0556","MEAN_ELEMENT_THEORY":"SGP4","ARG_OF_PERICENTER":"64.5114","SEMIMAJOR_AXIS":"6925.385","GP_ID":"207119547","REV_AT_EPOCH":"7694"},{"GP_ID":"207119798","SEMIMAJOR_AXIS":"6925.398","ARG_OF_PERICENTER":"73.0900","REV_AT_EPOCH":"7696","ELEMENT_SET_NO":"999","EPHEMERIS_TYPE":"0","EPOCH":"2022-06-29T20:22:17.412096","LAUNCH_DATE":"2021-02-16","OBJECT_TYPE":"PAYLOAD","RA_OF_ASC_NODE":"346.7833","TIME_SYSTEM":"UTC","COUNTRY_CODE":"US","MEAN_ELEMENT_THEORY":"SGP4","APOAPSIS":"548.208","RCS_SIZE":"LARGE","INCLINATION":"53.0565","SITE":"AFETR","MEAN_MOTION":"15.06383750","TLE_LINE2":"2 47674  53.0565 346.7833 0001364  73.0900 287.0238 15.06383750 76967","TLE_LINE1":"1 47674U 21012BG  22180.84881264  .00000106  00000-0  26016-4 0  9994","MEAN_ANOMALY":"287.0238","OBJECT_ID":"2021-012BG","PERIAPSIS":"546.319","DECAY_DATE":null,"OBJECT_NAME":"STARLINK-2067","MEAN_MOTION_DOT":"0.00000106","BSTAR":"0.00002601600000","CLASSIFICATION_TYPE":"U","REF_FRAME":"TEME","ECCENTRICITY":"0.00013640","PERIOD":"95.593","MEAN_MOTION_DDOT":"0.0000000000000","CENTER_NAME":"EARTH","FILE":"3505610","NORAD_CAT_ID":"47674"},{"SITE":"AFETR","MEAN_MOTION":"15.06391975","DECAY_DATE":null,"PERIAPSIS":"546.228","OBJECT_ID":"2021-012BH","MEAN_ANOMALY":"289.7643","TLE_LINE1":"1 47675U 21012BH  22180.77603779 -.00000013  00000-0  18037-4 0  9992","TLE_LINE2":"2 47675  53.0555 347.1299 0001459  70.3503 289.7643 15.06391975 76958","REF_FRAME":"TEME","BSTAR":"0.00001803700000","CLASSIFICATION_TYPE":"U","OBJECT_NAME":"STARLINK-2078","MEAN_MOTION_DOT":"-0.00000013","FILE":"3505610","NORAD_CAT_ID":"47675","CENTER_NAME":"EARTH","MEAN_MOTION_DDOT":"0.0000000000000","PERIOD":"95.593","ECCENTRICITY":"0.00014590","ARG_OF_PERICENTER":"70.3503","SEMIMAJOR_AXIS":"6925.373","GP_ID":"207118048","REV_AT_EPOCH":"7695","COUNTRY_CODE":"US","TIME_SYSTEM":"UTC","RA_OF_ASC_NODE":"347.1299","LAUNCH_DATE":"2021-02-16","OBJECT_TYPE":"PAYLOAD","EPOCH":"2022-06-29T18:37:29.665056","EPHEMERIS_TYPE":"0","ELEMENT_SET_NO":"999","RCS_SIZE":"LARGE","INCLINATION":"53.0555","APOAPSIS":"548.249","MEAN_ELEMENT_THEORY":"SGP4"},{"TLE_LINE2":"2 47676  53.0515 238.6471 0001385  61.9982 298.1147 15.06389475 78425","TLE_LINE1":"1 47676U 21012BJ  22180.43969504 -.00001446  00000-0 -78216-4 0  9994","OBJECT_ID":"2021-012BJ","MEAN_ANOMALY":"298.1147","PERIAPSIS":"546.287","DECAY_DATE":null,"SITE":"AFETR","MEAN_MOTION":"15.06389475","ECCENTRICITY":"0.00013850","PERIOD":"95.593","MEAN_MOTION_DDOT":"0.0000000000000","NORAD_CAT_ID":"47676","FILE":"3505485","CENTER_NAME":"EARTH","MEAN_MOTION_DOT":"-0.00001446","OBJECT_NAME":"STARLINK-2083","CLASSIFICATION_TYPE":"U","BSTAR":"-0.00007821600000","REF_FRAME":"TEME","REV_AT_EPOCH":"7842","GP_ID":"207091374","SEMIMAJOR_AXIS":"6925.381","ARG_OF_PERICENTER":"61.9982","MEAN_ELEMENT_THEORY":"SGP4","APOAPSIS":"548.205","INCLINATION":"53.0515","RCS_SIZE":"LARGE","ELEMENT_SET_NO":"999","EPHEMERIS_TYPE":"0","EPOCH":"2022-06-29T10:33:09.651456","OBJECT_TYPE":"PAYLOAD","LAUNCH_DATE":"2021-02-16","RA_OF_ASC_NODE":"238.6471","TIME_SYSTEM":"UTC","COUNTRY_CODE":"US"}];
